CCSDS_OMM_VERS = 2.0
CREATION_DATE  = 
ORIGINATOR     = 

OBJECT_NAME    = SILVERSAT
OBJECT_ID      = 1998-067XV
CENTER_NAME    = EARTH
REF_FRAME      = TEME
TIME_SYSTEM    = UTC
MEAN_ELEMENT_THEORY = SGP/SGP4

EPOCH          = 2026-02-02T13:19:40.575936
MEAN_MOTION    = 15.61451329
ECCENTRICITY   = .00029533
INCLINATION    = 51.6263
RA_OF_ASC_NODE = 243.2974
ARG_OF_PERICENTER = 182.8938
MEAN_ANOMALY   = 177.2039

EPHEMERIS_TYPE = 0
CLASSIFICATION_TYPE = U
NORAD_CAT_ID   = 66909
ELEMENT_SET_NO = 999
REV_AT_EPOCH   = 968
BSTAR          = .12632301E-2
MEAN_MOTION_DOT = .111112E-2
MEAN_MOTION_DDOT = 0

CCSDS_OMM_VERS = 2.0
CREATION_DATE  = 
ORIGINATOR     = 

OBJECT_NAME    = 1998-067XW
OBJECT_ID      = 1998-067XW
CENTER_NAME    = EARTH
REF_FRAME      = TEME
TIME_SYSTEM    = UTC
MEAN_ELEMENT_THEORY = SGP/SGP4

EPOCH          = 2026-02-03T03:24:35.604864
MEAN_MOTION    = 15.60425108
ECCENTRICITY   = .0001241
INCLINATION    = 51.6250
RA_OF_ASC_NODE = 240.4605
ARG_OF_PERICENTER = 178.4411
MEAN_ANOMALY   = 181.6586

EPHEMERIS_TYPE = 0
CLASSIFICATION_TYPE = U
NORAD_CAT_ID   = 66910
ELEMENT_SET_NO = 999
REV_AT_EPOCH   = 977
BSTAR          = .94983E-3
MEAN_MOTION_DOT = .79851E-3
MEAN_MOTION_DDOT = 0

CCSDS_OMM_VERS = 2.0
CREATION_DATE  = 
ORIGINATOR     = 

OBJECT_NAME    = 1998-067XX
OBJECT_ID      = 1998-067XX
CENTER_NAME    = EARTH
REF_FRAME      = TEME
TIME_SYSTEM    = UTC
MEAN_ELEMENT_THEORY = SGP/SGP4

EPOCH          = 2026-02-02T23:27:52.039296
MEAN_MOTION    = 15.62627778
ECCENTRICITY   = .0002356
INCLINATION    = 51.6238
RA_OF_ASC_NODE = 240.8615
ARG_OF_PERICENTER = 210.9723
MEAN_ANOMALY   = 149.1132

EPHEMERIS_TYPE = 0
CLASSIFICATION_TYPE = U
NORAD_CAT_ID   = 66911
ELEMENT_SET_NO = 999
REV_AT_EPOCH   = 974
BSTAR          = .11667E-2
MEAN_MOTION_DOT = .107333E-2
MEAN_MOTION_DDOT = 0

CCSDS_OMM_VERS = 2.0
CREATION_DATE  = 
ORIGINATOR     = 

OBJECT_NAME    = 1998-067XY
OBJECT_ID      = 1998-067XY
CENTER_NAME    = EARTH
REF_FRAME      = TEME
TIME_SYSTEM    = UTC
MEAN_ELEMENT_THEORY = SGP/SGP4

EPOCH          = 2026-02-02T22:31:25.486752
MEAN_MOTION    = 15.57830370
ECCENTRICITY   = .0001996
INCLINATION    = 51.6268
RA_OF_ASC_NODE = 242.1063
ARG_OF_PERICENTER = 139.3908
MEAN_ANOMALY   = 220.7233

EPHEMERIS_TYPE = 0
CLASSIFICATION_TYPE = U
NORAD_CAT_ID   = 66912
ELEMENT_SET_NO = 999
REV_AT_EPOCH   = 972
BSTAR          = .82853E-3
MEAN_MOTION_DOT = .62899E-3
MEAN_MOTION_DDOT = 0

