SILVERSAT               
1 66909U 98067XV  26033.55533074  .00111112  00000+0  12632-2 0  9998
2 66909  51.6263 243.2974 0002953 182.8938 177.2039 15.61451329  9683
1998-067XW              
1 66910U 98067XW  26034.14207876  .00079851  00000+0  94983-3 0  9997
2 66910  51.6250 240.4605 0001241 178.4411 181.6586 15.60425108  9778
1998-067XX              
1 66911U 98067XX  26033.97768564  .00107333  00000+0  11667-2 0  9998
2 66911  51.6238 240.8615 0002356 210.9723 149.1132 15.62627778  9748
1998-067XY              
1 66912U 98067XY  26033.93848943  .00062899  00000+0  82853-3 0  9998
2 66912  51.6268 242.1063 0001996 139.3908 220.7233 15.57830370  9726
